VRMM 130900Z 24012KT 9999 FEW015 FEW016CB OVC100 29/26 Q1007 CB N ESE S SW W TEMPO 3000 TSRA
